COSMOS 2492 [GLONASS-M] 
1 39620U 14012A   26174.90776451 -.00000082  00000+0  00000+0 0  9996
2 39620  65.2933 313.7069 0010214 323.0851  36.8355  2.13103141 95380
SJ-11-06                
1 39624U 14014A   26177.95531754  .00000448  00000+0  98532-4 0  9992
2 39624  97.9477 204.3414 0012934 319.7431  40.2812 14.61861903652126
SENTINEL-1A             
1 39634U 14016A   26177.96748521  .00000190  00000+0  49967-4 0  9990
2 39634  98.1780 185.3572 0001365  84.7626 275.3729 14.59201044651444
IRNSS-1B                
1 39635U 14017A   26177.74786470  .00000145  00000+0  00000+0 0  9993
2 39635  28.9068 240.2389 0023551 196.9483 161.9840  1.00269902 44887
LUCH-5V                 
1 39727U 14023A   26177.70252914 -.00000262  00000+0  00000+0 0  9990
2 39727   5.1567  69.6542 0002461  49.0043 143.8337  1.00272015 44453
KAZSAT-3                
1 39728U 14023B   26177.53564498  .00000072  00000+0  00000+0 0  9993
2 39728   0.0104  14.2545 0000214  94.9490  56.7854  1.00272356 42556
KAZEOSAT 1              
1 39731U 14024A   26177.94368351  .00000116  00000+0  48294-4 0  9994
2 39731  98.3208 250.1484 0001232  74.6073 285.5253 14.42083317639960
NAVSTAR 70 (USA 251)    
1 39741U 14026A   26176.93636039 -.00000104  00000+0  00000+0 0  9992
2 39741  56.4938 331.1769 0038119 326.3471  33.4038  2.00560487 88716
COSMOS 2496 (RODNIK-S *)
1 39761U 14028A   26177.92412476  .00000016  00000+0  43663-4 0  9991
2 39761  82.4452 102.6330 0021319  58.8153 301.5013 12.42878848548725
COSMOS 2497 (RODNIK-S *)
1 39762U 14028B   26177.89928185  .00000026  00000+0  11248-3 0  9991
2 39762  82.4500 104.3420 0021838  54.0947 306.2155 12.42894625548724
COSMOS 2498 (RODNIK-S *)
1 39763U 14028C   26177.95670288 -.00000045  00000+0 -39494-3 0  9993
2 39763  82.4461 102.7890 0022566  53.5495 306.7660 12.42980168548763
ALOS-2                  
1 39766U 14029A   26177.87830084  .00001158  00000+0  16186-3 0  9997
2 39766  97.9221 274.9032 0001577  89.2522 270.8870 14.79471532653018
UNIFORM 1               
1 39767U 14029B   26177.77821267  .00001638  00000+0  15169-3 0  9993
2 39767  97.8063 275.1312 0003703 280.3938  79.6865 14.95893540655650
SOCRATES                
1 39768U 14029C   26177.87575147  .00002005  00000+0  18962-3 0  9991
2 39768  97.9086 291.4085 0004939 317.8032  42.2807 14.94818632655850
RISING 2                
1 39769U 14029D   26177.95988782  .00005031  00000+0  42385-3 0  9992
2 39769  97.6542 246.2913 0001684 268.8228  91.2802 14.98640489655013
EUTELSAT 3B             
1 39773U 14030A   26177.80885022  .00000031  00000+0  00000+0 0  9995
2 39773   0.0602 353.6075 0004270  99.7645 115.8342  1.00270711 44169
COSMOS 2500 [GLONASS-M] 
1 40001U 14032A   26177.89294685 -.00000083  00000+0  00000+0 0  9999
2 40001  65.2262 313.3518 0007726 185.8868 174.0932  2.13105989 93668
KAZEOSAT 2              
1 40010U 14033A   26177.92988964  .00001033  00000+0  12555-3 0  9991
2 40010  97.5409  17.0273 0007101 293.1065  66.9402 14.85482925650406
HODOYOSHI-4             
1 40011U 14033B   26177.98554204  .00001513  00000+0  16931-3 0  9999
2 40011  97.5452   2.3352 0022098 273.8413  86.0278 14.88148221650263
UNISAT-6                
1 40012U 14033C   26177.94937009  .00002671  00000+0  28944-3 0  9997
2 40012  97.7883 330.4899 0045676  37.8677 322.5737 14.88291089647616
DEIMOS-2                
1 40013U 14033D   26177.89637917  .00001258  00000+0  12394-3 0  9999
2 40013  97.5829  52.0444 0001224  54.1298 306.0036 14.93751423639170
BUGSAT-1 (TITA)         
1 40014U 14033E   26177.93932494  .00006478  00000+0  34067-3 0  9993
2 40014  98.0428 271.0586 0028668 145.6578 214.6513 15.15689035657314
HODOYOSHI-3             
1 40015U 14033F   26177.95269586  .00001047  00000+0  12661-3 0  9994
2 40015  97.6425 340.6005 0031881 324.5664  35.3433 14.85407102649073
SAUDISAT 4              
1 40016U 14033G   26177.92509677  .00000598  00000+0  85330-4 0  9994
2 40016  97.7593 323.7234 0045724  43.1569 317.3212 14.79556302647511
APRIZESAT 9             
1 40018U 14033J   26177.91360181  .00000748  00000+0  11705-3 0  9991
2 40018  97.9071 310.8750 0066459 167.8702 192.4126 14.74227829644996
APRIZESAT 10            
1 40019U 14033K   26177.92259169  .00000504  00000+0  87083-4 0  9999
2 40019  97.9660 304.6655 0077563 242.2115 117.1213 14.70891363643682
BRITE-CA1 (TORONTO)     
1 40020U 14033L   26177.88972236  .00000844  00000+0  13452-3 0  9998
2 40020  97.9749 306.6393 0077345 245.4033 113.9102 14.72690941643643
DUCHIFAT-1              
1 40021U 14033M   26177.60974735  .00111371  00000+0  10572-2 0  9992
2 40021  98.0448 238.1065 0001317 100.0937 260.0470 15.66536146657223
NANOSATC-BR1            
1 40024U 14033Q   26177.35208476  .00019164  00000+0  62707-3 0  9994
2 40024  98.0721 210.5531 0005038 140.2235 219.9374 15.31739274655383
QB50P1                  
1 40025U 14033R   26177.96968864  .00008965  00000+0  43898-3 0  9993
2 40025  98.0962 189.8021 0008800 180.7025 179.4197 15.18403426654518
