OBJECT_NAME,OBJECT_ID,EPOCH,MEAN_MOTION,ECCENTRICITY,INCLINATION,RA_OF_ASC_NODE,ARG_OF_PERICENTER,MEAN_ANOMALY,EPHEMERIS_TYPE,CLASSIFICATION_TYPE,NORAD_CAT_ID,ELEMENT_SET_NO,REV_AT_EPOCH,BSTAR,MEAN_MOTION_DOT,MEAN_MOTION_DDOT
COSMOS 2492 [GLONASS-M],2014-012A,2026-06-23T21:47:10.853664,2.13103141,.00102141,65.2933,313.7069,323.0851,36.8355,0,U,39620,999,9538,0,-.82E-6,0
SJ-11-06,2014-014A,2026-06-26T22:55:39.435456,14.61861903,.00129346,97.9477,204.3414,319.7431,40.2812,0,U,39624,999,65212,.98532069E-4,.448E-5,0
SENTINEL-1A,2014-016A,2026-06-26T23:13:10.722144,14.59201044,.00013659,98.1780,185.3572,84.7626,275.3729,0,U,39634,999,65144,.49967165E-4,.19E-5,0
IRNSS-1B,2014-017A,2026-06-26T17:56:55.510080,1.00269902,.00235518,28.9068,240.2389,196.9483,161.9840,0,U,39635,999,4488,0,.145E-5,0
LUCH-5V,2014-023A,2026-06-26T16:51:38.517696,1.00272015,.00024617,5.1567,69.6542,49.0043,143.8337,0,U,39727,999,4445,0,-.262E-5,0
KAZSAT-3,2014-023B,2026-06-26T12:51:19.726272,1.00272356,.0000214,0.0104,14.2545,94.9490,56.7854,0,U,39728,999,4255,0,.72E-6,0
KAZEOSAT 1,2014-024A,2026-06-26T22:38:54.255264,14.42083317,.0001232,98.3208,250.1484,74.6073,285.5253,0,U,39731,999,63996,.48293815E-4,.116E-5,0
NAVSTAR 70 (USA 251),2014-026A,2026-06-25T22:28:21.537696,2.00560487,.0038119,56.4938,331.1769,326.3471,33.4038,0,U,39741,999,8871,0,-.104E-5,0
COSMOS 2496 (RODNIK-S 10),2014-028A,2026-06-26T22:10:44.379264,12.42878848,.00213193,82.4452,102.6330,58.8153,301.5013,0,U,39761,999,54872,.43663334E-4,.16E-6,0
COSMOS 2497 (RODNIK-S 11),2014-028B,2026-06-26T21:34:57.951840,12.42894625,.00218381,82.4500,104.3420,54.0947,306.2155,0,U,39762,999,54872,.11247927E-3,.26E-6,0
COSMOS 2498 (RODNIK-S 12),2014-028C,2026-06-26T22:57:39.128832,12.42980168,.00225661,82.4461,102.7890,53.5495,306.7660,0,U,39763,999,54876,-.39494158E-3,-.45E-6,0
ALOS-2,2014-029A,2026-06-26T21:04:45.192576,14.79471532,.00015771,97.9221,274.9032,89.2522,270.8870,0,U,39766,999,65301,.16185833E-3,.1158E-4,0
UNIFORM 1,2014-029B,2026-06-26T18:40:37.574688,14.95893540,.00037039,97.8063,275.1312,280.3938,79.6865,0,U,39767,999,65565,.15169375E-3,.1638E-4,0
SOCRATES,2014-029C,2026-06-26T21:01:04.927008,14.94818632,.00049395,97.9086,291.4085,317.8032,42.2807,0,U,39768,999,65585,.18961955E-3,.2005E-4,0
RISING 2,2014-029D,2026-06-26T23:02:14.307648,14.98640489,.00016846,97.6542,246.2913,268.8228,91.2802,0,U,39769,999,65501,.42384872E-3,.5031E-4,0
EUTELSAT 3B,2014-030A,2026-06-26T19:24:44.659008,1.00270711,.000427,0.0602,353.6075,99.7645,115.8342,0,U,39773,999,4416,0,.31E-6,0
COSMOS 2500 [GLONASS-M],2014-032A,2026-06-26T21:25:50.607840,2.13105989,.00077264,65.2262,313.3518,185.8868,174.0932,0,U,40001,999,9366,0,-.83E-6,0
KAZEOSAT 2,2014-033A,2026-06-26T22:19:02.464896,14.85482925,.00071011,97.5409,17.0273,293.1065,66.9402,0,U,40010,999,65040,.12554815E-3,.1033E-4,0
HODOYOSHI-4,2014-033B,2026-06-26T23:39:10.832256,14.88148221,.00220986,97.5452,2.3352,273.8413,86.0278,0,U,40011,999,65026,.16931181E-3,.1513E-4,0
UNISAT-6,2014-033C,2026-06-26T22:47:05.575776,14.88291089,.00456765,97.7883,330.4899,37.8677,322.5737,0,U,40012,999,64761,.28943577E-3,.2671E-4,0
DEIMOS-2,2014-033D,2026-06-26T21:30:47.160288,14.93751423,.00012247,97.5829,52.0444,54.1298,306.0036,0,U,40013,999,63917,.12393615E-3,.1258E-4,0
BUGSAT-1 (TITA),2014-033E,2026-06-26T22:32:37.674816,15.15689035,.00286689,98.0428,271.0586,145.6578,214.6513,0,U,40014,999,65731,.34067334E-3,.6478E-4,0
HODOYOSHI-3,2014-033F,2026-06-26T22:51:52.922304,14.85407102,.00318818,97.6425,340.6005,324.5664,35.3433,0,U,40015,999,64907,.12660984E-3,.1047E-4,0
SAUDISAT 4,2014-033G,2026-06-26T22:12:08.360928,14.79556302,.00457247,97.7593,323.7234,43.1569,317.3212,0,U,40016,999,64751,.85330472E-4,.598E-5,0
APRIZESAT 9,2014-033J,2026-06-26T21:55:35.196384,14.74227829,.0066459,97.9071,310.8750,167.8702,192.4126,0,U,40018,999,64499,.11704862E-3,.748E-5,0
APRIZESAT 10,2014-033K,2026-06-26T22:08:31.922016,14.70891363,.0077563,97.9660,304.6655,242.2115,117.1213,0,U,40019,999,64368,.87082701E-4,.504E-5,0
BRITE-CA1 (TORONTO),2014-033L,2026-06-26T21:21:12.011904,14.72690941,.00773454,97.9749,306.6393,245.4033,113.9102,0,U,40020,999,64364,.13451976E-3,.844E-5,0
DUCHIFAT-1,2014-033M,2026-06-26T14:38:02.171040,15.66536146,.0001317,98.0448,238.1065,100.0937,260.0470,0,U,40021,999,65722,.10572E-2,.111371E-2,0
NANOSATC-BR1,2014-033Q,2026-06-26T08:27:00.123264,15.31739274,.0005038,98.0721,210.5531,140.2235,219.9374,0,U,40024,999,65538,.62707E-3,.19164E-3,0
QB50P1,2014-033R,2026-06-26T23:16:21.098496,15.18403426,.00088007,98.0962,189.8021,180.7025,179.4197,0,U,40025,999,65451,.43897868E-3,.8965E-4,0
